[{"OBJECT_NAME":"ONEWEB-0385","OBJECT_ID":"2021-090AJ","EPOCH":"2026-03-09T16:03:33.684768","MEAN_MOTION":13.20771158,"ECCENTRICITY":0.00014182,"INCLINATION":87.9171,"RA_OF_ASC_NODE":294.3107,"ARG_OF_PERICENTER":81.2211,"MEAN_ANOMALY":278.9083,"EPHEMERIS_TYPE":0,"CLASSIFICATION_TYPE":"U","NORAD_CAT_ID":49311,"ELEMENT_SET_NO":999,"REV_AT_EPOCH":21666,"BSTAR":-5.0970124e-5,"MEAN_MOTION_DOT":-8.0e-8,"MEAN_MOTION_DDOT":0},{"OBJECT_NAME":"NOVA 1","OBJECT_ID":"1981-044A","EPOCH":"2026-03-09T23:44:36.716640","MEAN_MOTION":13.23287337,"ECCENTRICITY":0.00130269,"INCLINATION":89.842,"RA_OF_ASC_NODE":90.1115,"ARG_OF_PERICENTER":217.6651,"MEAN_ANOMALY":201.8697,"EPHEMERIS_TYPE":0,"CLASSIFICATION_TYPE":"U","NORAD_CAT_ID":12458,"ELEMENT_SET_NO":999,"REV_AT_EPOCH":16340,"BSTAR":5.1340553e-5,"MEAN_MOTION_DOT":3.1e-7,"MEAN_MOTION_DDOT":0}]
